OBJECT_NAME,OBJECT_ID,EPOCH,MEAN_MOTION,ECCENTRICITY,INCLINATION,RA_OF_ASC_NODE,ARG_OF_PERICENTER,MEAN_ANOMALY,EPHEMERIS_TYPE,CLASSIFICATION_TYPE,NORAD_CAT_ID,ELEMENT_SET_NO,REV_AT_EPOCH,BSTAR,MEAN_MOTION_DOT,MEAN_MOTION_DDOT
LEMUR-2-STARLIGHT,2025-276DY,2026-07-07T17:27:59.628672,14.99294536,.0014709,97.5225,258.6642,69.0260,291.2536,0,U,66783,999,3327,.35671E-3,.4308E-4,0
LEMUR-2-TARTIFLETTE,2025-276DZ,2026-07-07T17:25:35.726016,14.99284529,.0013766,97.5226,258.6704,76.8058,283.4700,0,U,66784,999,3327,.28728E-3,.3456E-4,0
LEMUR-2-VUKASIN,2025-276EA,2026-07-07T18:27:37.216800,15.00501248,.0004191,97.5244,259.0570,76.2705,283.8986,0,U,66785,999,3323,.26163E-3,.3239E-4,0
LEMUR-2-HOTSPUR-TOM,2025-276EB,2026-07-07T17:16:51.227040,14.99191668,.0013963,97.5216,258.6413,68.0373,292.2333,0,U,66786,999,3320,.31113E-3,.3739E-4,0
LEMUR-2-MYRA,2025-276EC,2026-07-07T17:37:47.949600,15.00532328,.0018539,97.5212,258.9439,76.9468,283.3824,0,U,66787,999,3329,.32057E-3,.3999E-4,0
LEMUR-2 FIKRETDENGIZ,2026-004A,2026-07-07T10:29:25.495296,14.88480375,.00105086,97.8026,186.6857,77.6746,282.5647,0,U,67363,999,2629,.25805149E-3,.2344E-4,0
TWILIGHT-1 OBJECT B,2026-004B,2026-07-07T11:17:33.791136,14.87776167,.00101346,97.8067,186.7239,68.0680,292.1613,0,U,67364,999,2630,.18693272E-3,.1653E-4,0
LEMUR-2-MARIO-SOUSA,2026-004C,2026-07-06T22:44:27.957984,14.88683478,.00102259,97.7998,186.1987,80.1925,280.0447,0,U,67365,999,2623,.40765023E-3,.3754E-4,0
LEMUR-2-SONNENBLUME,2026-004E,2026-07-06T22:46:27.274656,14.88426255,.00097433,97.7994,186.1767,81.1165,279.1155,0,U,67367,999,2623,.28917668E-3,.2629E-4,0
LEMUR-2-WOBLER,2026-004F,2026-07-06T22:32:56.462496,14.88659353,.0009913,97.8045,186.3094,72.9418,287.2884,0,U,67368,999,2623,.35866099E-3,.3294E-4,0
LEMUR-2-GRAM-E-SUE,2026-004H,2026-07-07T11:15:10.069056,14.88566107,.00088409,97.7980,186.7048,81.9735,278.2485,0,U,67370,999,2631,.23119236E-3,.2098E-4,0
LEMUR-2-KATIE,2026-004AA,2026-07-07T05:35:26.049696,14.90205469,.00041422,97.8045,186.9973,52.0155,308.1437,0,U,67387,999,2629,.31920492E-3,.3039E-4,0
LEMUR-2-HCS-BAZUS,2026-004AB,2026-07-06T23:06:27.944352,14.90233192,.00035912,97.8032,186.7099,52.2546,307.8996,0,U,67388,999,2625,.22645603E-3,.2141E-4,0
