LEMUR-2-STARLIGHT       
1 66783U 25276DY  26188.72777348  .00004308  00000+0  35671-3 0  9991
2 66783  97.5225 258.6642 0014709  69.0260 291.2536 14.99294536 33274
LEMUR-2-TARTIFLETTE     
1 66784U 25276DZ  26188.72610794  .00003456  00000+0  28728-3 0  9991
2 66784  97.5226 258.6704 0013766  76.8058 283.4700 14.99284529 33275
LEMUR-2-VUKASIN         
1 66785U 25276EA  26188.76918075  .00003239  00000+0  26163-3 0  9999
2 66785  97.5244 259.0570 0004191  76.2705 283.8986 15.00501248 33236
LEMUR-2-HOTSPUR-TOM     
1 66786U 25276EB  26188.72003735  .00003739  00000+0  31113-3 0  9990
2 66786  97.5216 258.6413 0013963  68.0373 292.2333 14.99191668 33209
LEMUR-2-MYRA            
1 66787U 25276EC  26188.73458275  .00003999  00000+0  32057-3 0  9991
2 66787  97.5212 258.9439 0018539  76.9468 283.3824 15.00532328 33294
LEMUR-2 FIKRETDENGIZ    
1 67363U 26004A   26188.43710064  .00002344  00000+0  25805-3 0  9992
2 67363  97.8026 186.6857 0010508  77.6746 282.5647 14.88480375 26292
TWILIGHT-1 OBJECT B     
1 67364U 26004B   26188.47052999  .00001653  00000+0  18693-3 0  9992
2 67364  97.8067 186.7239 0010134  68.0680 292.1613 14.87776167 26307
LEMUR-2-MARIO-SOUSA     
1 67365U 26004C   26187.94754581  .00003754  00000+0  40765-3 0  9999
2 67365  97.7998 186.1987 0010225  80.1925 280.0447 14.88683478 26238
LEMUR-2-SONNENBLUME     
1 67367U 26004E   26187.94892679  .00002629  00000+0  28918-3 0  9998
2 67367  97.7994 186.1767 0009743  81.1165 279.1155 14.88426255 26235
LEMUR-2-WOBLER          
1 67368U 26004F   26187.93954239  .00003294  00000+0  35866-3 0  9998
2 67368  97.8045 186.3094 0009913  72.9418 287.2884 14.88659353 26233
LEMUR-2-GRAM-E-SUE      
1 67370U 26004H   26188.46886654  .00002098  00000+0  23119-3 0  9994
2 67370  97.7980 186.7048 0008840  81.9735 278.2485 14.88566107 26316
LEMUR-2-KATIE           
1 67387U 26004AA  26188.23294039  .00003039  00000+0  31920-3 0  9992
2 67387  97.8045 186.9973 0004142  52.0155 308.1437 14.90205469 26293
LEMUR-2-HCS-BAZUS       
1 67388U 26004AB  26187.96282343  .00002141  00000+0  22646-3 0  9995
2 67388  97.8032 186.7099 0003591  52.2546 307.8996 14.90233192 26256
